{
  "type": "FeatureCollection",
  "features": [
    {
      "type": "Feature",
      "properties": {
        "norad_id": 66849,
        "name": "STARLINK-36102",
        "group": "last-30-days",
        "lat": 42.426242845868614,
        "lon": 172.12643408940536,
        "alt_km": 327.8750423535712,
        "timestamp": "2025-12-17T10:52:53.101348+00:00",
        "meta_object_name": "STARLINK-36102",
        "meta_object_id": "2025-281B",
        "meta_epoch": "2025-12-16T22:00:03.000096",
        "meta_mean_motion": 15.80433654,
        "meta_eccentricity": 0.00014593,
        "meta_inclination": 43.0007,
        "meta_ra_of_asc_node": 96.6504,
        "meta_arg_of_pericenter": 275.4492,
        "meta_mean_anomaly": 350.4704,
        "meta_ephemeris_type": 0,
        "meta_classification_type": "U",
        "meta_norad_cat_id": 66849,
        "meta_element_set_no": 999,
        "meta_rev_at_epoch": 207,
        "meta_bstar": -0.0074673068,
        "meta_mean_motion_dot": -0.01286557,
        "meta_mean_motion_ddot": 0,
        "tle_line1": "1 66849U 25281B   25350.91670139 -.01286557  00000+0 -74673-2 0  9996",
        "tle_line2": "2 66849  43.0007  96.6504 0001459 275.4492 350.4704 15.80433654  2072"
      },
      "geometry": {
        "type": "Point",
        "coordinates": [
          172.12643408940536,
          42.426242845868614
        ]
      }
    },
    {
      "type": "Feature",
      "properties": {
        "norad_id": 66850,
        "name": "STARLINK-36105",
        "group": "last-30-days",
        "lat": 42.712385776487366,
        "lon": 175.54403521815675,
        "alt_km": 328.35170688883227,
        "timestamp": "2025-12-17T10:52:53.101358+00:00",
        "meta_object_name": "STARLINK-36105",
        "meta_object_id": "2025-281C",
        "meta_epoch": "2025-12-16T22:00:03.000096",
        "meta_mean_motion": 15.80338596,
        "meta_eccentricity": 0.00017163,
        "meta_inclination": 43.0003,
        "meta_ra_of_asc_node": 96.6437,
        "meta_arg_of_pericenter": 272.1729,
        "meta_mean_anomaly": 356.4779,
        "meta_ephemeris_type": 0,
        "meta_classification_type": "U",
        "meta_norad_cat_id": 66850,
        "meta_element_set_no": 999,
        "meta_rev_at_epoch": 207,
        "meta_bstar": -0.0075588748,
        "meta_mean_motion_dot": -0.01295522,
        "meta_mean_motion_ddot": 0,
        "tle_line1": "1 66850U 25281C   25350.91670139 -.01295522  00000+0 -75589-2 0  9997",
        "tle_line2": "2 66850  43.0003  96.6437 0001716 272.1729 356.4779 15.80338596  2075"
      },
      "geometry": {
        "type": "Point",
        "coordinates": [
          175.54403521815675,
          42.712385776487366
        ]
      }
    },
    {
      "type": "Feature",
      "properties": {
        "norad_id": 66851,
        "name": "STARLINK-36094",
        "group": "last-30-days",
        "lat": 42.87959359799478,
        "lon": 178.5741240240031,
        "alt_km": 328.2954342935018,
        "timestamp": "2025-12-17T10:52:53.101370+00:00",
        "meta_object_name": "STARLINK-36094",
        "meta_object_id": "2025-281D",
        "meta_epoch": "2025-12-16T22:00:03.000096",
        "meta_mean_motion": 15.80295888,
        "meta_eccentricity": 0.00014922,
        "meta_inclination": 43.0003,
        "meta_ra_of_asc_node": 96.6377,
        "meta_arg_of_pericenter": 279.0388,
        "meta_mean_anomaly": 351.9371,
        "meta_ephemeris_type": 0,
        "meta_classification_type": "U",
        "meta_norad_cat_id": 66851,
        "meta_element_set_no": 999,
        "meta_rev_at_epoch": 207,
        "meta_bstar": -0.0076430786,
        "meta_mean_motion_dot": -0.01305751,
        "meta_mean_motion_ddot": 0,
        "tle_line1": "1 66851U 25281D   25350.91670139 -.01305751  00000+0 -76431-2 0  9991",
        "tle_line2": "2 66851  43.0003  96.6377 0001492 279.0388 351.9371 15.80295888  2071"
      },
      "geometry": {
        "type": "Point",
        "coordinates": [
          178.5741240240031,
          42.87959359799478
        ]
      }
    },
    {
      "type": "Feature",
      "properties": {
        "norad_id": 66852,
        "name": "STARLINK-35992",
        "group": "last-30-days",
        "lat": 42.96564983938021,
        "lon": -178.44060006140396,
        "alt_km": 328.55695191944596,
        "timestamp": "2025-12-17T10:52:53.101381+00:00",
        "meta_object_name": "STARLINK-35992",
        "meta_object_id": "2025-281E",
        "meta_epoch": "2025-12-16T22:00:03.000096",
        "meta_mean_motion": 15.8025574,
        "meta_eccentricity": 0.00016168,
        "meta_inclination": 43.0006,
        "meta_ra_of_asc_node": 96.6316,
        "meta_arg_of_pericenter": 274.7056,
        "meta_mean_anomaly": 358.5496,
        "meta_ephemeris_type": 0,
        "meta_classification_type": "U",
        "meta_norad_cat_id": 66852,
        "meta_element_set_no": 999,
        "meta_rev_at_epoch": 207,
        "meta_bstar": -0.0077103312,
        "meta_mean_motion_dot": -0.01338366,
        "meta_mean_motion_ddot": 0,
        "tle_line1": "1 66852U 25281E   25350.91670139 -.01338366  00000+0 -77103-2 0  9997",
        "tle_line2": "2 66852  43.0006  96.6316 0001616 274.7056 358.5496 15.80255740  2074"
      },
      "geometry": {
        "type": "Point",
        "coordinates": [
          -178.44060006140396,
          42.96564983938021
        ]
      }
    },
    {
      "type": "Feature",
      "properties": {
        "norad_id": 66853,
        "name": "STARLINK-35986",
        "group": "last-30-days",
        "lat": 42.96666901347555,
        "lon": -174.92487734667168,
        "alt_km": 328.89729760460614,
        "timestamp": "2025-12-17T10:52:53.101391+00:00",
        "meta_object_name": "STARLINK-35986",
        "meta_object_id": "2025-281F",
        "meta_epoch": "2025-12-16T22:00:03.000096",
        "meta_mean_motion": 15.80146711,
        "meta_eccentricity": 0.00015785,
        "meta_inclination": 43.0006,
        "meta_ra_of_asc_node": 96.625,
        "meta_arg_of_pericenter": 275.1454,
        "meta_mean_anomaly": 0.9115,
        "meta_ephemeris_type": 0,
        "meta_classification_type": "U",
        "meta_norad_cat_id": 66853,
        "meta_element_set_no": 999,
        "meta_rev_at_epoch": 207,
        "meta_bstar": -0.0078343823,
        "meta_mean_motion_dot": -0.01351455,
        "meta_mean_motion_ddot": 0,
        "tle_line1": "1 66853U 25281F   25350.91670139 -.01351455  00000+0 -78344-2 0  9990",
        "tle_line2": "2 66853  43.0006  96.6250 0001578 275.1454   0.9115 15.80146711  2079"
      },
      "geometry": {
        "type": "Point",
        "coordinates": [
          -174.92487734667168,
          42.96666901347555
        ]
      }
    },
    {
      "type": "Feature",
      "properties": {
        "norad_id": 66854,
        "name": "STARLINK-36087",
        "group": "last-30-days",
        "lat": 42.86522188400418,
        "lon": -171.5321348826878,
        "alt_km": 329.4108954640815,
        "timestamp": "2025-12-17T10:52:53.101404+00:00",
        "meta_object_name": "STARLINK-36087",
        "meta_object_id": "2025-281G",
        "meta_epoch": "2025-12-16T22:00:03.000096",
        "meta_mean_motion": 15.80046576,
        "meta_eccentricity": 0.0001793,
        "meta_inclination": 43.0007,
        "meta_ra_of_asc_node": 96.618,
        "meta_arg_of_pericenter": 269.2074,
        "meta_mean_anomaly": 9.5497,
        "meta_ephemeris_type": 0,
        "meta_classification_type": "U",
        "meta_norad_cat_id": 66854,
        "meta_element_set_no": 999,
        "meta_rev_at_epoch": 207,
        "meta_bstar": -0.0079466695,
        "meta_mean_motion_dot": -0.0136321,
        "meta_mean_motion_ddot": 0,
        "tle_line1": "1 66854U 25281G   25350.91670139 -.01363210  00000+0 -79467-2 0  9990",
        "tle_line2": "2 66854  43.0007  96.6180 0001793 269.2074   9.5497 15.80046576  2070"
      },
      "geometry": {
        "type": "Point",
        "coordinates": [
          -171.5321348826878,
          42.86522188400418
        ]
      }
    },
    {
      "type": "Feature",
      "properties": {
        "norad_id": 66855,
        "name": "STARLINK-36090",
        "group": "last-30-days",
        "lat": 42.68611518550243,
        "lon": -168.4618899783512,
        "alt_km": 329.55620801981877,
        "timestamp": "2025-12-17T10:52:53.101414+00:00",
        "meta_object_name": "STARLINK-36090",
        "meta_object_id": "2025-281H",
        "meta_epoch": "2025-12-16T22:00:03.000096",
        "meta_mean_motion": 15.79984739,
        "meta_eccentricity": 0.00016853,
        "meta_inclination": 43.0008,
        "meta_ra_of_asc_node": 96.6121,
        "meta_arg_of_pericenter": 275.308,
        "meta_mean_anomaly": 5.8366,
        "meta_ephemeris_type": 0,
        "meta_classification_type": "U",
        "meta_norad_cat_id": 66855,
        "meta_element_set_no": 999,
        "meta_rev_at_epoch": 194,
        "meta_bstar": -0.0080124801,
        "meta_mean_motion_dot": -0.01369706,
        "meta_mean_motion_ddot": 0,
        "tle_line1": "1 66855U 25281H   25350.91670139 -.01369706  00000+0 -80125-2 0  9990",
        "tle_line2": "2 66855  43.0008  96.6121 0001685 275.3080   5.8366 15.79984739  1941"
      },
      "geometry": {
        "type": "Point",
        "coordinates": [
          -168.4618899783512,
          42.68611518550243
        ]
      }
    }
  ]
}